{
  "norad_id": 56080,
  "name": "ONEWEB-0651",
  "history": [
    {
      "epoch": "2026-03-28T21:07:02.853696Z",
      "apogee_km": 1202.8664752153418,
      "perigee_km": 1200.6623914765541,
      "latitude_deg": 9.430000136501681e-05,
      "longitude_deg": 132.19721389552143,
      "height_km": 1204.8210265304695,
      "semi_major_axis_km": 7579.901433345948,
      "eccentricity": 0.00014539,
      "inclination_deg": 87.8923,
      "raan_deg": 275.2531,
      "arg_perigee_deg": 98.54,
      "mean_anomaly_deg": 261.5896,
      "mean_motion_rev_day": 13.15550199
    },
    {
      "epoch": "2026-03-29T04:25:08.278176Z",
      "apogee_km": 1202.8721427427636,
      "perigee_km": 1200.660326978832,
      "latitude_deg": -5.513977412298899e-05,
      "longitude_deg": 22.313844241135683,
      "height_km": 1204.8274207995387,
      "semi_major_axis_km": 7579.903234860798,
      "eccentricity": 0.0001459,
      "inclination_deg": 87.8923,
      "raan_deg": 275.1922,
      "arg_perigee_deg": 98.7498,
      "mean_anomaly_deg": 261.3797,
      "mean_motion_rev_day": 13.1554973
    },
    {
      "epoch": "2026-03-30T04:08:55.756320Z",
      "apogee_km": 1202.8832897761013,
      "perigee_km": 1200.6487343681438,
      "latitude_deg": 2.43372635691109e-06,
      "longitude_deg": 25.19377084628627,
      "height_km": 1204.8403219565757,
      "semi_major_axis_km": 7579.903012072123,
      "eccentricity": 0.0001474,
      "inclination_deg": 87.8923,
      "raan_deg": 274.9945,
      "arg_perigee_deg": 99.3429,
      "mean_anomaly_deg": 260.7868,
      "mean_motion_rev_day": 13.15549788
    },
    {
      "epoch": "2026-03-30T05:58:27.094080Z",
      "apogee_km": 1202.8842577245305,
      "perigee_km": 1200.6474283955422,
      "latitude_deg": -1.367615945617442e-05,
      "longitude_deg": -2.2770690035399053,
      "height_km": 1204.8407190572505,
      "semi_major_axis_km": 7579.902843060036,
      "eccentricity": 0.00014755,
      "inclination_deg": 87.8923,
      "raan_deg": 274.9792,
      "arg_perigee_deg": 99.3627,
      "mean_anomaly_deg": 260.767,
      "mean_motion_rev_day": 13.15549832
    },
    {
      "epoch": "2026-03-30T13:16:32.467584Z",
      "apogee_km": 1202.8867880567432,
      "perigee_km": 1200.645259134606,
      "latitude_deg": 5.01795522754018e-05,
      "longitude_deg": -112.16011756135465,
      "height_km": 1204.8406935371656,
      "semi_major_axis_km": 7579.903023595674,
      "eccentricity": 0.00014786,
      "inclination_deg": 87.8923,
      "raan_deg": 274.9184,
      "arg_perigee_deg": 99.333,
      "mean_anomaly_deg": 260.7968,
      "mean_motion_rev_day": 13.15549785
    },
    {
      "epoch": "2026-03-30T20:34:37.841088Z",
      "apogee_km": 1202.890278351474,
      "perigee_km": 1200.6411696152136,
      "latitude_deg": -1.1845263837920706e-06,
      "longitude_deg": 137.95672966185646,
      "height_km": 1204.8432128543716,
      "semi_major_axis_km": 7579.902723983343,
      "eccentricity": 0.00014836,
      "inclination_deg": 87.8923,
      "raan_deg": 274.8575,
      "arg_perigee_deg": 99.4468,
      "mean_anomaly_deg": 260.683,
      "mean_motion_rev_day": 13.15549863
    },
    {
      "epoch": "2026-03-31T20:18:25.316640Z",
      "apogee_km": 1202.8957119230408,
      "perigee_km": 1200.6338692287327,
      "latitude_deg": 2.184065241988866e-05,
      "longitude_deg": 140.83656656987992,
      "height_km": 1204.8503579732244,
      "semi_major_axis_km": 7579.9017905758865,
      "eccentricity": 0.0001492,
      "inclination_deg": 87.8923,
      "raan_deg": 274.6597,
      "arg_perigee_deg": 99.8089,
      "mean_anomaly_deg": 260.321,
      "mean_motion_rev_day": 13.15550106
    },
    {
      "epoch": "2026-04-01T20:02:12.812064Z",
      "apogee_km": 1202.9064440434313,
      "perigee_km": 1200.6218618359344,
      "latitude_deg": -1.6606127103652185e-05,
      "longitude_deg": 143.7163180930624,
      "height_km": 1204.863332059834,
      "semi_major_axis_km": 7579.901152939682,
      "eccentricity": 0.0001507,
      "inclination_deg": 87.8924,
      "raan_deg": 274.4619,
      "arg_perigee_deg": 100.4043,
      "mean_anomaly_deg": 259.7257,
      "mean_motion_rev_day": 13.15550272
    },
    {
      "epoch": "2026-04-02T19:46:00.342048Z",
      "apogee_km": 1202.915628285411,
      "perigee_km": 1200.612854288308,
      "latitude_deg": -1.1975243609945428e-05,
      "longitude_deg": 146.59592633257455,
      "height_km": 1204.879060804195,
      "semi_major_axis_km": 7579.901241286859,
      "eccentricity": 0.0001519,
      "inclination_deg": 87.8925,
      "raan_deg": 274.2641,
      "arg_perigee_deg": 101.1139,
      "mean_anomaly_deg": 259.0162,
      "mean_motion_rev_day": 13.15550249
    },
    {
      "epoch": "2026-04-02T21:35:31.727328Z",
      "apogee_km": 1202.918588466444,
      "perigee_km": 1200.6121757696128,
      "latitude_deg": -3.532370588028081e-05,
      "longitude_deg": 119.12498764087873,
      "height_km": 1204.8818160564779,
      "semi_major_axis_km": 7579.902382118028,
      "eccentricity": 0.00015214,
      "inclination_deg": 87.8925,
      "raan_deg": 274.2489,
      "arg_perigee_deg": 101.1779,
      "mean_anomaly_deg": 258.9522,
      "mean_motion_rev_day": 13.15549952
    },
    {
      "epoch": "2026-04-03T19:29:47.872896Z",
      "apogee_km": 1202.926991615006,
      "perigee_km": 1200.5999621686015,
      "latitude_deg": -5.977838079001779e-05,
      "longitude_deg": 149.47572832596816,
      "height_km": 1204.89136287129,
      "semi_major_axis_km": 7579.900476891804,
      "eccentricity": 0.0001535,
      "inclination_deg": 87.8926,
      "raan_deg": 274.0665,
      "arg_perigee_deg": 101.6534,
      "mean_anomaly_deg": 258.4768,
      "mean_motion_rev_day": 13.15550448
    }
  ]
}